{
"type": "FeatureCollection",
"name": "Text_lo",
"crs": { "type": "name", "properties": { "name": "urn:ogc:def:crs:OGC:1.3:CRS84" } },
"features": [
{ "type": "Feature", "properties": { "NAME": "", "LAYER": "", "Cong_Ty": "", "Khu_Lien_Hop": "", "Xi_Nghiep": "", "Nong_Truong": "", "Khu_Vuc": "", "Ten_Lo": "", "Loai_Cay": "", "Dien_Tich": 0.0, "So_Cay": 0, "Thang_Trong": 0, "Nam_Trong": 0, "Mat_Do": 0, "Loai_Giong": "", "Ghi_Chu": "", "KML_STYLE": "", "KML_FOLDER": "", "tessellate": 0, "ID": 0, "CenterX": 0, "CenterY": 0, "LoaiDat": "", "DienTich": 0 }, "geometry": { "type": "Point", "coordinates": [ 107.988263, 13.856139 ] } },
{ "type": "Feature", "properties": { "NAME": "", "LAYER": "", "Cong_Ty": "", "Khu_Lien_Hop": "", "Xi_Nghiep": "", "Nong_Truong": "", "Khu_Vuc": "", "Ten_Lo": "", "Loai_Cay": "", "Dien_Tich": 0.0, "So_Cay": 0, "Thang_Trong": 0, "Nam_Trong": 0, "Mat_Do": 0, "Loai_Giong": "", "Ghi_Chu": "", "KML_STYLE": "", "KML_FOLDER": "", "tessellate": 0, "ID": 0, "CenterX": 0, "CenterY": 0, "LoaiDat": "", "DienTich": 0 }, "geometry": { "type": "Point", "coordinates": [ 107.986182, 13.853288 ] } },
{ "type": "Feature", "properties": { "NAME": "", "LAYER": "", "Cong_Ty": "", "Khu_Lien_Hop": "", "Xi_Nghiep": "", "Nong_Truong": "", "Khu_Vuc": "", "Ten_Lo": "", "Loai_Cay": "", "Dien_Tich": 0.0, "So_Cay": 0, "Thang_Trong": 0, "Nam_Trong": 0, "Mat_Do": 0, "Loai_Giong": "", "Ghi_Chu": "", "KML_STYLE": "", "KML_FOLDER": "", "tessellate": 0, "ID": 0, "CenterX": 0, "CenterY": 0, "LoaiDat": "", "DienTich": 0 }, "geometry": { "type": "Point", "coordinates": [ 107.988282, 13.854581 ] } },
{ "type": "Feature", "properties": { "NAME": "", "LAYER": "", "Cong_Ty": "", "Khu_Lien_Hop": "", "Xi_Nghiep": "", "Nong_Truong": "", "Khu_Vuc": "", "Ten_Lo": "", "Loai_Cay": "", "Dien_Tich": 0.0, "So_Cay": 0, "Thang_Trong": 0, "Nam_Trong": 0, "Mat_Do": 0, "Loai_Giong": "", "Ghi_Chu": "", "KML_STYLE": "", "KML_FOLDER": "", "tessellate": 0, "ID": 0, "CenterX": 0, "CenterY": 0, "LoaiDat": "", "DienTich": 0 }, "geometry": { "type": "Point", "coordinates": [ 107.988224, 13.853118 ] } },
{ "type": "Feature", "properties": { "NAME": "", "LAYER": "", "Cong_Ty": "", "Khu_Lien_Hop": "", "Xi_Nghiep": "", "Nong_Truong": "", "Khu_Vuc": "", "Ten_Lo": "", "Loai_Cay": "", "Dien_Tich": 0.0, "So_Cay": 0, "Thang_Trong": 0, "Nam_Trong": 0, "Mat_Do": 0, "Loai_Giong": "", "Ghi_Chu": "", "KML_STYLE": "", "KML_FOLDER": "", "tessellate": 0, "ID": 0, "CenterX": 0, "CenterY": 0, "LoaiDat": "", "DienTich": 0 }, "geometry": { "type": "Point", "coordinates": [ 107.98977, 13.852759 ] } },
{ "type": "Feature", "properties": { "NAME": "", "LAYER": "", "Cong_Ty": "", "Khu_Lien_Hop": "", "Xi_Nghiep": "", "Nong_Truong": "", "Khu_Vuc": "", "Ten_Lo": "", "Loai_Cay": "", "Dien_Tich": 0.0, "So_Cay": 0, "Thang_Trong": 0, "Nam_Trong": 0, "Mat_Do": 0, "Loai_Giong": "", "Ghi_Chu": "", "KML_STYLE": "", "KML_FOLDER": "", "tessellate": 0, "ID": 0, "CenterX": 0, "CenterY": 0, "LoaiDat": "", "DienTich": 0 }, "geometry": { "type": "Point", "coordinates": [ 107.990703, 13.852853 ] } },
{ "type": "Feature", "properties": { "NAME": "", "LAYER": "", "Cong_Ty": "", "Khu_Lien_Hop": "", "Xi_Nghiep": "", "Nong_Truong": "", "Khu_Vuc": "", "Ten_Lo": "", "Loai_Cay": "", "Dien_Tich": 0.0, "So_Cay": 0, "Thang_Trong": 0, "Nam_Trong": 0, "Mat_Do": 0, "Loai_Giong": "", "Ghi_Chu": "", "KML_STYLE": "", "KML_FOLDER": "", "tessellate": 0, "ID": 0, "CenterX": 0, "CenterY": 0, "LoaiDat": "", "DienTich": 0 }, "geometry": { "type": "Point", "coordinates": [ 107.991199, 13.854648 ] } },
{ "type": "Feature", "properties": { "NAME": "", "LAYER": "", "Cong_Ty": "", "Khu_Lien_Hop": "", "Xi_Nghiep": "", "Nong_Truong": "", "Khu_Vuc": "", "Ten_Lo": "", "Loai_Cay": "", "Dien_Tich": 0.0, "So_Cay": 0, "Thang_Trong": 0, "Nam_Trong": 0, "Mat_Do": 0, "Loai_Giong": "", "Ghi_Chu": "", "KML_STYLE": "", "KML_FOLDER": "", "tessellate": 0, "ID": 0, "CenterX": 0, "CenterY": 0, "LoaiDat": "", "DienTich": 0 }, "geometry": { "type": "Point", "coordinates": [ 107.99154, 13.852617 ] } },
{ "type": "Feature", "properties": { "NAME": "", "LAYER": "", "Cong_Ty": "", "Khu_Lien_Hop": "", "Xi_Nghiep": "", "Nong_Truong": "", "Khu_Vuc": "", "Ten_Lo": "", "Loai_Cay": "", "Dien_Tich": 0.0, "So_Cay": 0, "Thang_Trong": 0, "Nam_Trong": 0, "Mat_Do": 0, "Loai_Giong": "", "Ghi_Chu": "", "KML_STYLE": "", "KML_FOLDER": "", "tessellate": 0, "ID": 0, "CenterX": 0, "CenterY": 0, "LoaiDat": "", "DienTich": 0 }, "geometry": { "type": "Point", "coordinates": [ 107.992716, 13.852835 ] } },
{ "type": "Feature", "properties": { "NAME": "", "LAYER": "", "Cong_Ty": "", "Khu_Lien_Hop": "", "Xi_Nghiep": "", "Nong_Truong": "", "Khu_Vuc": "", "Ten_Lo": "", "Loai_Cay": "", "Dien_Tich": 0.0, "So_Cay": 0, "Thang_Trong": 0, "Nam_Trong": 0, "Mat_Do": 0, "Loai_Giong": "", "Ghi_Chu": "", "KML_STYLE": "", "KML_FOLDER": "", "tessellate": 0, "ID": 0, "CenterX": 0, "CenterY": 0, "LoaiDat": "", "DienTich": 0 }, "geometry": { "type": "Point", "coordinates": [ 107.9933, 13.854931 ] } },
{ "type": "Feature", "properties": { "NAME": "", "LAYER": "", "Cong_Ty": "", "Khu_Lien_Hop": "", "Xi_Nghiep": "", "Nong_Truong": "", "Khu_Vuc": "", "Ten_Lo": "", "Loai_Cay": "", "Dien_Tich": 0.0, "So_Cay": 0, "Thang_Trong": 0, "Nam_Trong": 0, "Mat_Do": 0, "Loai_Giong": "", "Ghi_Chu": "", "KML_STYLE": "", "KML_FOLDER": "", "tessellate": 0, "ID": 0, "CenterX": 0, "CenterY": 0, "LoaiDat": "", "DienTich": 0 }, "geometry": { "type": "Point", "coordinates": [ 107.994126, 13.853042 ] } },
{ "type": "Feature", "properties": { "NAME": "", "LAYER": "", "Cong_Ty": "", "Khu_Lien_Hop": "", "Xi_Nghiep": "", "Nong_Truong": "", "Khu_Vuc": "", "Ten_Lo": "", "Loai_Cay": "", "Dien_Tich": 0.0, "So_Cay": 0, "Thang_Trong": 0, "Nam_Trong": 0, "Mat_Do": 0, "Loai_Giong": "", "Ghi_Chu": "", "KML_STYLE": "", "KML_FOLDER": "", "tessellate": 0, "ID": 0, "CenterX": 0, "CenterY": 0, "LoaiDat": "", "DienTich": 0 }, "geometry": { "type": "Point", "coordinates": [ 107.996626, 13.855242 ] } },
{ "type": "Feature", "properties": { "NAME": "", "LAYER": "", "Cong_Ty": "", "Khu_Lien_Hop": "", "Xi_Nghiep": "", "Nong_Truong": "", "Khu_Vuc": "", "Ten_Lo": "", "Loai_Cay": "", "Dien_Tich": 0.0, "So_Cay": 0, "Thang_Trong": 0, "Nam_Trong": 0, "Mat_Do": 0, "Loai_Giong": "", "Ghi_Chu": "", "KML_STYLE": "", "KML_FOLDER": "", "tessellate": 0, "ID": 0, "CenterX": 0, "CenterY": 0, "LoaiDat": "", "DienTich": 0 }, "geometry": { "type": "Point", "coordinates": [ 107.996674, 13.853968 ] } },
{ "type": "Feature", "properties": { "NAME": "", "LAYER": "", "Cong_Ty": "", "Khu_Lien_Hop": "", "Xi_Nghiep": "", "Nong_Truong": "", "Khu_Vuc": "", "Ten_Lo": "", "Loai_Cay": "", "Dien_Tich": 0.0, "So_Cay": 0, "Thang_Trong": 0, "Nam_Trong": 0, "Mat_Do": 0, "Loai_Giong": "", "Ghi_Chu": "", "KML_STYLE": "", "KML_FOLDER": "", "tessellate": 0, "ID": 0, "CenterX": 0, "CenterY": 0, "LoaiDat": "", "DienTich": 0 }, "geometry": { "type": "Point", "coordinates": [ 107.996742, 13.852759 ] } },
{ "type": "Feature", "properties": { "NAME": "", "LAYER": "", "Cong_Ty": "", "Khu_Lien_Hop": "", "Xi_Nghiep": "", "Nong_Truong": "", "Khu_Vuc": "", "Ten_Lo": "", "Loai_Cay": "", "Dien_Tich": 0.0, "So_Cay": 0, "Thang_Trong": 0, "Nam_Trong": 0, "Mat_Do": 0, "Loai_Giong": "", "Ghi_Chu": "", "KML_STYLE": "", "KML_FOLDER": "", "tessellate": 0, "ID": 0, "CenterX": 0, "CenterY": 0, "LoaiDat": "", "DienTich": 0 }, "geometry": { "type": "Point", "coordinates": [ 107.994233, 13.851003 ] } },
{ "type": "Feature", "properties": { "NAME": "", "LAYER": "", "Cong_Ty": "", "Khu_Lien_Hop": "", "Xi_Nghiep": "", "Nong_Truong": "", "Khu_Vuc": "", "Ten_Lo": "", "Loai_Cay": "", "Dien_Tich": 0.0, "So_Cay": 0, "Thang_Trong": 0, "Nam_Trong": 0, "Mat_Do": 0, "Loai_Giong": "", "Ghi_Chu": "", "KML_STYLE": "", "KML_FOLDER": "", "tessellate": 0, "ID": 0, "CenterX": 0, "CenterY": 0, "LoaiDat": "", "DienTich": 0 }, "geometry": { "type": "Point", "coordinates": [ 107.991287, 13.850776 ] } },
{ "type": "Feature", "properties": { "NAME": "", "LAYER": "", "Cong_Ty": "", "Khu_Lien_Hop": "", "Xi_Nghiep": "", "Nong_Truong": "", "Khu_Vuc": "", "Ten_Lo": "", "Loai_Cay": "", "Dien_Tich": 0.0, "So_Cay": 0, "Thang_Trong": 0, "Nam_Trong": 0, "Mat_Do": 0, "Loai_Giong": "", "Ghi_Chu": "", "KML_STYLE": "", "KML_FOLDER": "", "tessellate": 0, "ID": 0, "CenterX": 0, "CenterY": 0, "LoaiDat": "", "DienTich": 0 }, "geometry": { "type": "Point", "coordinates": [ 107.988185, 13.851437 ] } },
{ "type": "Feature", "properties": { "NAME": "", "LAYER": "", "Cong_Ty": "", "Khu_Lien_Hop": "", "Xi_Nghiep": "", "Nong_Truong": "", "Khu_Vuc": "", "Ten_Lo": "", "Loai_Cay": "", "Dien_Tich": 0.0, "So_Cay": 0, "Thang_Trong": 0, "Nam_Trong": 0, "Mat_Do": 0, "Loai_Giong": "", "Ghi_Chu": "", "KML_STYLE": "", "KML_FOLDER": "", "tessellate": 0, "ID": 0, "CenterX": 0, "CenterY": 0, "LoaiDat": "", "DienTich": 0 }, "geometry": { "type": "Point", "coordinates": [ 107.993349, 13.848623 ] } },
{ "type": "Feature", "properties": { "NAME": "", "LAYER": "", "Cong_Ty": "", "Khu_Lien_Hop": "", "Xi_Nghiep": "", "Nong_Truong": "", "Khu_Vuc": "", "Ten_Lo": "", "Loai_Cay": "", "Dien_Tich": 0.0, "So_Cay": 0, "Thang_Trong": 0, "Nam_Trong": 0, "Mat_Do": 0, "Loai_Giong": "", "Ghi_Chu": "", "KML_STYLE": "", "KML_FOLDER": "", "tessellate": 0, "ID": 0, "CenterX": 0, "CenterY": 0, "LoaiDat": "", "DienTich": 0 }, "geometry": { "type": "Point", "coordinates": [ 107.995935, 13.849454 ] } },
{ "type": "Feature", "properties": { "NAME": "", "LAYER": "", "Cong_Ty": "", "Khu_Lien_Hop": "", "Xi_Nghiep": "", "Nong_Truong": "", "Khu_Vuc": "", "Ten_Lo": "", "Loai_Cay": "", "Dien_Tich": 0.0, "So_Cay": 0, "Thang_Trong": 0, "Nam_Trong": 0, "Mat_Do": 0, "Loai_Giong": "", "Ghi_Chu": "", "KML_STYLE": "", "KML_FOLDER": "", "tessellate": 0, "ID": 0, "CenterX": 0, "CenterY": 0, "LoaiDat": "", "DienTich": 0 }, "geometry": { "type": "Point", "coordinates": [ 107.994204, 13.846329 ] } },
{ "type": "Feature", "properties": { "NAME": "", "LAYER": "", "Cong_Ty": "", "Khu_Lien_Hop": "", "Xi_Nghiep": "", "Nong_Truong": "", "Khu_Vuc": "", "Ten_Lo": "", "Loai_Cay": "", "Dien_Tich": 0.0, "So_Cay": 0, "Thang_Trong": 0, "Nam_Trong": 0, "Mat_Do": 0, "Loai_Giong": "", "Ghi_Chu": "", "KML_STYLE": "", "KML_FOLDER": "", "tessellate": 0, "ID": 0, "CenterX": 0, "CenterY": 0, "LoaiDat": "", "DienTich": 0 }, "geometry": { "type": "Point", "coordinates": [ 107.996344, 13.843997 ] } },
{ "type": "Feature", "properties": { "NAME": "", "LAYER": "", "Cong_Ty": "", "Khu_Lien_Hop": "", "Xi_Nghiep": "", "Nong_Truong": "", "Khu_Vuc": "", "Ten_Lo": "", "Loai_Cay": "", "Dien_Tich": 0.0, "So_Cay": 0, "Thang_Trong": 0, "Nam_Trong": 0, "Mat_Do": 0, "Loai_Giong": "", "Ghi_Chu": "", "KML_STYLE": "", "KML_FOLDER": "", "tessellate": 0, "ID": 0, "CenterX": 0, "CenterY": 0, "LoaiDat": "", "DienTich": 0 }, "geometry": { "type": "Point", "coordinates": [ 107.996412, 13.845527 ] } },
{ "type": "Feature", "properties": { "NAME": "", "LAYER": "", "Cong_Ty": "", "Khu_Lien_Hop": "", "Xi_Nghiep": "", "Nong_Truong": "", "Khu_Vuc": "", "Ten_Lo": "", "Loai_Cay": "", "Dien_Tich": 0.0, "So_Cay": 0, "Thang_Trong": 0, "Nam_Trong": 0, "Mat_Do": 0, "Loai_Giong": "", "Ghi_Chu": "", "KML_STYLE": "", "KML_FOLDER": "", "tessellate": 0, "ID": 0, "CenterX": 0, "CenterY": 0, "LoaiDat": "", "DienTich": 0 }, "geometry": { "type": "Point", "coordinates": [ 107.994632, 13.843761 ] } },
{ "type": "Feature", "properties": { "NAME": "", "LAYER": "", "Cong_Ty": "", "Khu_Lien_Hop": "", "Xi_Nghiep": "", "Nong_Truong": "", "Khu_Vuc": "", "Ten_Lo": "", "Loai_Cay": "", "Dien_Tich": 0.0, "So_Cay": 0, "Thang_Trong": 0, "Nam_Trong": 0, "Mat_Do": 0, "Loai_Giong": "", "Ghi_Chu": "", "KML_STYLE": "", "KML_FOLDER": "", "tessellate": 0, "ID": 0, "CenterX": 0, "CenterY": 0, "LoaiDat": "", "DienTich": 0 }, "geometry": { "type": "Point", "coordinates": [ 107.992931, 13.843364 ] } },
{ "type": "Feature", "properties": { "NAME": "", "LAYER": "", "Cong_Ty": "", "Khu_Lien_Hop": "", "Xi_Nghiep": "", "Nong_Truong": "", "Khu_Vuc": "", "Ten_Lo": "", "Loai_Cay": "", "Dien_Tich": 0.0, "So_Cay": 0, "Thang_Trong": 0, "Nam_Trong": 0, "Mat_Do": 0, "Loai_Giong": "", "Ghi_Chu": "", "KML_STYLE": "", "KML_FOLDER": "", "tessellate": 0, "ID": 0, "CenterX": 0, "CenterY": 0, "LoaiDat": "", "DienTich": 0 }, "geometry": { "type": "Point", "coordinates": [ 107.992629, 13.844734 ] } },
{ "type": "Feature", "properties": { "NAME": "", "LAYER": "", "Cong_Ty": "", "Khu_Lien_Hop": "", "Xi_Nghiep": "", "Nong_Truong": "", "Khu_Vuc": "", "Ten_Lo": "", "Loai_Cay": "", "Dien_Tich": 0.0, "So_Cay": 0, "Thang_Trong": 0, "Nam_Trong": 0, "Mat_Do": 0, "Loai_Giong": "", "Ghi_Chu": "", "KML_STYLE": "", "KML_FOLDER": "", "tessellate": 0, "ID": 0, "CenterX": 0, "CenterY": 0, "LoaiDat": "", "DienTich": 0 }, "geometry": { "type": "Point", "coordinates": [ 107.990169, 13.846395 ] } },
{ "type": "Feature", "properties": { "NAME": "", "LAYER": "", "Cong_Ty": "", "Khu_Lien_Hop": "", "Xi_Nghiep": "", "Nong_Truong": "", "Khu_Vuc": "", "Ten_Lo": "", "Loai_Cay": "", "Dien_Tich": 0.0, "So_Cay": 0, "Thang_Trong": 0, "Nam_Trong": 0, "Mat_Do": 0, "Loai_Giong": "", "Ghi_Chu": "", "KML_STYLE": "", "KML_FOLDER": "", "tessellate": 0, "ID": 0, "CenterX": 0, "CenterY": 0, "LoaiDat": "", "DienTich": 0 }, "geometry": { "type": "Point", "coordinates": [ 107.990811, 13.844431 ] } },
{ "type": "Feature", "properties": { "NAME": "", "LAYER": "", "Cong_Ty": "", "Khu_Lien_Hop": "", "Xi_Nghiep": "", "Nong_Truong": "", "Khu_Vuc": "", "Ten_Lo": "", "Loai_Cay": "", "Dien_Tich": 0.0, "So_Cay": 0, "Thang_Trong": 0, "Nam_Trong": 0, "Mat_Do": 0, "Loai_Giong": "", "Ghi_Chu": "", "KML_STYLE": "", "KML_FOLDER": "", "tessellate": 0, "ID": 0, "CenterX": 0, "CenterY": 0, "LoaiDat": "", "DienTich": 0 }, "geometry": { "type": "Point", "coordinates": [ 107.988069, 13.845225 ] } },
{ "type": "Feature", "properties": { "NAME": "", "LAYER": "", "Cong_Ty": "", "Khu_Lien_Hop": "", "Xi_Nghiep": "", "Nong_Truong": "", "Khu_Vuc": "", "Ten_Lo": "", "Loai_Cay": "", "Dien_Tich": 0.0, "So_Cay": 0, "Thang_Trong": 0, "Nam_Trong": 0, "Mat_Do": 0, "Loai_Giong": "", "Ghi_Chu": "", "KML_STYLE": "", "KML_FOLDER": "", "tessellate": 0, "ID": 0, "CenterX": 0, "CenterY": 0, "LoaiDat": "", "DienTich": 0 }, "geometry": { "type": "Point", "coordinates": [ 107.987971, 13.847613 ] } },
{ "type": "Feature", "properties": { "NAME": "", "LAYER": "", "Cong_Ty": "", "Khu_Lien_Hop": "", "Xi_Nghiep": "", "Nong_Truong": "", "Khu_Vuc": "", "Ten_Lo": "", "Loai_Cay": "", "Dien_Tich": 0.0, "So_Cay": 0, "Thang_Trong": 0, "Nam_Trong": 0, "Mat_Do": 0, "Loai_Giong": "", "Ghi_Chu": "", "KML_STYLE": "", "KML_FOLDER": "", "tessellate": 0, "ID": 0, "CenterX": 0, "CenterY": 0, "LoaiDat": "", "DienTich": 0 }, "geometry": { "type": "Point", "coordinates": [ 107.995342, 13.840824 ] } },
{ "type": "Feature", "properties": { "NAME": "", "LAYER": "", "Cong_Ty": "", "Khu_Lien_Hop": "", "Xi_Nghiep": "", "Nong_Truong": "", "Khu_Vuc": "", "Ten_Lo": "", "Loai_Cay": "", "Dien_Tich": 0.0, "So_Cay": 0, "Thang_Trong": 0, "Nam_Trong": 0, "Mat_Do": 0, "Loai_Giong": "", "Ghi_Chu": "", "KML_STYLE": "", "KML_FOLDER": "", "tessellate": 0, "ID": 0, "CenterX": 0, "CenterY": 0, "LoaiDat": "", "DienTich": 0 }, "geometry": { "type": "Point", "coordinates": [ 107.993543, 13.842127 ] } },
{ "type": "Feature", "properties": { "NAME": "", "LAYER": "", "Cong_Ty": "", "Khu_Lien_Hop": "", "Xi_Nghiep": "", "Nong_Truong": "", "Khu_Vuc": "", "Ten_Lo": "", "Loai_Cay": "", "Dien_Tich": 0.0, "So_Cay": 0, "Thang_Trong": 0, "Nam_Trong": 0, "Mat_Do": 0, "Loai_Giong": "", "Ghi_Chu": "", "KML_STYLE": "", "KML_FOLDER": "", "tessellate": 0, "ID": 0, "CenterX": 0, "CenterY": 0, "LoaiDat": "", "DienTich": 0 }, "geometry": { "type": "Point", "coordinates": [ 107.993076, 13.8409 ] } },
{ "type": "Feature", "properties": { "NAME": "", "LAYER": "", "Cong_Ty": "", "Khu_Lien_Hop": "", "Xi_Nghiep": "", "Nong_Truong": "", "Khu_Vuc": "", "Ten_Lo": "", "Loai_Cay": "", "Dien_Tich": 0.0, "So_Cay": 0, "Thang_Trong": 0, "Nam_Trong": 0, "Mat_Do": 0, "Loai_Giong": "", "Ghi_Chu": "", "KML_STYLE": "", "KML_FOLDER": "", "tessellate": 0, "ID": 0, "CenterX": 0, "CenterY": 0, "LoaiDat": "", "DienTich": 0 }, "geometry": { "type": "Point", "coordinates": [ 107.993426, 13.839351 ] } },
{ "type": "Feature", "properties": { "NAME": "", "LAYER": "", "Cong_Ty": "", "Khu_Lien_Hop": "", "Xi_Nghiep": "", "Nong_Truong": "", "Khu_Vuc": "", "Ten_Lo": "", "Loai_Cay": "", "Dien_Tich": 0.0, "So_Cay": 0, "Thang_Trong": 0, "Nam_Trong": 0, "Mat_Do": 0, "Loai_Giong": "", "Ghi_Chu": "", "KML_STYLE": "", "KML_FOLDER": "", "tessellate": 0, "ID": 0, "CenterX": 0, "CenterY": 0, "LoaiDat": "", "DienTich": 0 }, "geometry": { "type": "Point", "coordinates": [ 107.990626, 13.841561 ] } },
{ "type": "Feature", "properties": { "NAME": "", "LAYER": "", "Cong_Ty": "", "Khu_Lien_Hop": "", "Xi_Nghiep": "", "Nong_Truong": "", "Khu_Vuc": "", "Ten_Lo": "", "Loai_Cay": "", "Dien_Tich": 0.0, "So_Cay": 0, "Thang_Trong": 0, "Nam_Trong": 0, "Mat_Do": 0, "Loai_Giong": "", "Ghi_Chu": "", "KML_STYLE": "", "KML_FOLDER": "", "tessellate": 0, "ID": 0, "CenterX": 0, "CenterY": 0, "LoaiDat": "", "DienTich": 0 }, "geometry": { "type": "Point", "coordinates": [ 107.992814, 13.846783 ] } },
{ "type": "Feature", "properties": { "NAME": "0", "LAYER": "0", "Cong_Ty": "0", "Khu_Lien_Hop": "", "Xi_Nghiep": "", "Nong_Truong": "", "Khu_Vuc": "", "Ten_Lo": "", "Loai_Cay": "", "Dien_Tich": 0.0, "So_Cay": 0, "Thang_Trong": 0, "Nam_Trong": 0, "Mat_Do": 0, "Loai_Giong": "0", "Ghi_Chu": "", "KML_STYLE": "0", "KML_FOLDER": "0", "tessellate": 0, "ID": 0, "CenterX": 0, "CenterY": 0, "LoaiDat": "0", "DienTich": 0 }, "geometry": { "type": "Point", "coordinates": [ 107.982622, 13.849464 ] } },
{ "type": "Feature", "properties": { "NAME": "0", "LAYER": "0", "Cong_Ty": "0", "Khu_Lien_Hop": "", "Xi_Nghiep": "", "Nong_Truong": "", "Khu_Vuc": "", "Ten_Lo": "", "Loai_Cay": "", "Dien_Tich": 0.0, "So_Cay": 0, "Thang_Trong": 0, "Nam_Trong": 0, "Mat_Do": 0, "Loai_Giong": "0", "Ghi_Chu": "", "KML_STYLE": "0", "KML_FOLDER": "0", "tessellate": 0, "ID": 0, "CenterX": 0, "CenterY": 0, "LoaiDat": "0", "DienTich": 0 }, "geometry": { "type": "Point", "coordinates": [ 107.987825, 13.849266 ] } },
{ "type": "Feature", "properties": { "NAME": "0", "LAYER": "0", "Cong_Ty": "0", "Khu_Lien_Hop": "", "Xi_Nghiep": "", "Nong_Truong": "", "Khu_Vuc": "", "Ten_Lo": "", "Loai_Cay": "", "Dien_Tich": 0.0, "So_Cay": 0, "Thang_Trong": 0, "Nam_Trong": 0, "Mat_Do": 0, "Loai_Giong": "0", "Ghi_Chu": "", "KML_STYLE": "0", "KML_FOLDER": "0", "tessellate": 0, "ID": 0, "CenterX": 0, "CenterY": 0, "LoaiDat": "0", "DienTich": 0 }, "geometry": { "type": "Point", "coordinates": [ 107.985725, 13.849596 ] } },
{ "type": "Feature", "properties": { "NAME": "0", "LAYER": "0", "Cong_Ty": "0", "Khu_Lien_Hop": "", "Xi_Nghiep": "", "Nong_Truong": "", "Khu_Vuc": "", "Ten_Lo": "", "Loai_Cay": "", "Dien_Tich": 0.0, "So_Cay": 0, "Thang_Trong": 0, "Nam_Trong": 0, "Mat_Do": 0, "Loai_Giong": "0", "Ghi_Chu": "", "KML_STYLE": "0", "KML_FOLDER": "0", "tessellate": 0, "ID": 0, "CenterX": 0, "CenterY": 0, "LoaiDat": "0", "DienTich": 0 }, "geometry": { "type": "Point", "coordinates": [ 107.984762, 13.848237 ] } },
{ "type": "Feature", "properties": { "NAME": "0", "LAYER": "0", "Cong_Ty": "0", "Khu_Lien_Hop": "", "Xi_Nghiep": "", "Nong_Truong": "", "Khu_Vuc": "", "Ten_Lo": "", "Loai_Cay": "", "Dien_Tich": 0.0, "So_Cay": 0, "Thang_Trong": 0, "Nam_Trong": 0, "Mat_Do": 0, "Loai_Giong": "0", "Ghi_Chu": "", "KML_STYLE": "0", "KML_FOLDER": "0", "tessellate": 0, "ID": 0, "CenterX": 0, "CenterY": 0, "LoaiDat": "0", "DienTich": 0 }, "geometry": { "type": "Point", "coordinates": [ 107.981582, 13.847047 ] } },
{ "type": "Feature", "properties": { "NAME": "0", "LAYER": "0", "Cong_Ty": "0", "Khu_Lien_Hop": "", "Xi_Nghiep": "", "Nong_Truong": "", "Khu_Vuc": "", "Ten_Lo": "", "Loai_Cay": "", "Dien_Tich": 0.0, "So_Cay": 0, "Thang_Trong": 0, "Nam_Trong": 0, "Mat_Do": 0, "Loai_Giong": "0", "Ghi_Chu": "", "KML_STYLE": "0", "KML_FOLDER": "0", "tessellate": 0, "ID": 0, "CenterX": 0, "CenterY": 0, "LoaiDat": "0", "DienTich": 0 }, "geometry": { "type": "Point", "coordinates": [ 107.983663, 13.845593 ] } },
{ "type": "Feature", "properties": { "NAME": "0", "LAYER": "0", "Cong_Ty": "0", "Khu_Lien_Hop": "", "Xi_Nghiep": "", "Nong_Truong": "", "Khu_Vuc": "", "Ten_Lo": "", "Loai_Cay": "", "Dien_Tich": 0.0, "So_Cay": 0, "Thang_Trong": 0, "Nam_Trong": 0, "Mat_Do": 0, "Loai_Giong": "0", "Ghi_Chu": "", "KML_STYLE": "0", "KML_FOLDER": "0", "tessellate": 0, "ID": 0, "CenterX": 0, "CenterY": 0, "LoaiDat": "0", "DienTich": 0 }, "geometry": { "type": "Point", "coordinates": [ 107.984869, 13.845631 ] } },
{ "type": "Feature", "properties": { "NAME": "0", "LAYER": "0", "Cong_Ty": "0", "Khu_Lien_Hop": "", "Xi_Nghiep": "", "Nong_Truong": "", "Khu_Vuc": "", "Ten_Lo": "", "Loai_Cay": "", "Dien_Tich": 0.0, "So_Cay": 0, "Thang_Trong": 0, "Nam_Trong": 0, "Mat_Do": 0, "Loai_Giong": "0", "Ghi_Chu": "", "KML_STYLE": "0", "KML_FOLDER": "0", "tessellate": 0, "ID": 0, "CenterX": 0, "CenterY": 0, "LoaiDat": "0", "DienTich": 0 }, "geometry": { "type": "Point", "coordinates": [ 107.986143, 13.84565 ] } },
{ "type": "Feature", "properties": { "NAME": "0", "LAYER": "0", "Cong_Ty": "0", "Khu_Lien_Hop": "", "Xi_Nghiep": "", "Nong_Truong": "", "Khu_Vuc": "", "Ten_Lo": "", "Loai_Cay": "", "Dien_Tich": 0.0, "So_Cay": 0, "Thang_Trong": 0, "Nam_Trong": 0, "Mat_Do": 0, "Loai_Giong": "0", "Ghi_Chu": "", "KML_STYLE": "0", "KML_FOLDER": "0", "tessellate": 0, "ID": 0, "CenterX": 0, "CenterY": 0, "LoaiDat": "0", "DienTich": 0 }, "geometry": { "type": "Point", "coordinates": [ 107.979714, 13.845961 ] } },
{ "type": "Feature", "properties": { "NAME": "0", "LAYER": "0", "Cong_Ty": "0", "Khu_Lien_Hop": "", "Xi_Nghiep": "", "Nong_Truong": "", "Khu_Vuc": "", "Ten_Lo": "", "Loai_Cay": "", "Dien_Tich": 0.0, "So_Cay": 0, "Thang_Trong": 0, "Nam_Trong": 0, "Mat_Do": 0, "Loai_Giong": "0", "Ghi_Chu": "", "KML_STYLE": "0", "KML_FOLDER": "0", "tessellate": 0, "ID": 0, "CenterX": 0, "CenterY": 0, "LoaiDat": "0", "DienTich": 0 }, "geometry": { "type": "Point", "coordinates": [ 107.981076, 13.845158 ] } },
{ "type": "Feature", "properties": { "NAME": "0", "LAYER": "0", "Cong_Ty": "0", "Khu_Lien_Hop": "", "Xi_Nghiep": "", "Nong_Truong": "", "Khu_Vuc": "", "Ten_Lo": "", "Loai_Cay": "", "Dien_Tich": 0.0, "So_Cay": 0, "Thang_Trong": 0, "Nam_Trong": 0, "Mat_Do": 0, "Loai_Giong": "0", "Ghi_Chu": "", "KML_STYLE": "0", "KML_FOLDER": "0", "tessellate": 0, "ID": 0, "CenterX": 0, "CenterY": 0, "LoaiDat": "0", "DienTich": 0 }, "geometry": { "type": "Point", "coordinates": [ 107.9813, 13.843865 ] } },
{ "type": "Feature", "properties": { "NAME": "0", "LAYER": "0", "Cong_Ty": "0", "Khu_Lien_Hop": "", "Xi_Nghiep": "", "Nong_Truong": "", "Khu_Vuc": "", "Ten_Lo": "", "Loai_Cay": "", "Dien_Tich": 0.0, "So_Cay": 0, "Thang_Trong": 0, "Nam_Trong": 0, "Mat_Do": 0, "Loai_Giong": "0", "Ghi_Chu": "", "KML_STYLE": "0", "KML_FOLDER": "0", "tessellate": 0, "ID": 0, "CenterX": 0, "CenterY": 0, "LoaiDat": "0", "DienTich": 0 }, "geometry": { "type": "Point", "coordinates": [ 107.981552, 13.842533 ] } },
{ "type": "Feature", "properties": { "NAME": "0", "LAYER": "0", "Cong_Ty": "0", "Khu_Lien_Hop": "", "Xi_Nghiep": "", "Nong_Truong": "", "Khu_Vuc": "", "Ten_Lo": "", "Loai_Cay": "", "Dien_Tich": 0.0, "So_Cay": 0, "Thang_Trong": 0, "Nam_Trong": 0, "Mat_Do": 0, "Loai_Giong": "0", "Ghi_Chu": "", "KML_STYLE": "0", "KML_FOLDER": "0", "tessellate": 0, "ID": 0, "CenterX": 0, "CenterY": 0, "LoaiDat": "0", "DienTich": 0 }, "geometry": { "type": "Point", "coordinates": [ 107.982136, 13.840957 ] } },
{ "type": "Feature", "properties": { "NAME": "0", "LAYER": "0", "Cong_Ty": "0", "Khu_Lien_Hop": "", "Xi_Nghiep": "", "Nong_Truong": "", "Khu_Vuc": "", "Ten_Lo": "", "Loai_Cay": "", "Dien_Tich": 0.0, "So_Cay": 0, "Thang_Trong": 0, "Nam_Trong": 0, "Mat_Do": 0, "Loai_Giong": "0", "Ghi_Chu": "", "KML_STYLE": "0", "KML_FOLDER": "0", "tessellate": 0, "ID": 0, "CenterX": 0, "CenterY": 0, "LoaiDat": "0", "DienTich": 0 }, "geometry": { "type": "Point", "coordinates": [ 107.984888, 13.841618 ] } },
{ "type": "Feature", "properties": { "NAME": "0", "LAYER": "0", "Cong_Ty": "0", "Khu_Lien_Hop": "", "Xi_Nghiep": "", "Nong_Truong": "", "Khu_Vuc": "", "Ten_Lo": "", "Loai_Cay": "", "Dien_Tich": 0.0, "So_Cay": 0, "Thang_Trong": 0, "Nam_Trong": 0, "Mat_Do": 0, "Loai_Giong": "0", "Ghi_Chu": "", "KML_STYLE": "0", "KML_FOLDER": "0", "tessellate": 0, "ID": 0, "CenterX": 0, "CenterY": 0, "LoaiDat": "0", "DienTich": 0 }, "geometry": { "type": "Point", "coordinates": [ 107.987562, 13.841939 ] } },
{ "type": "Feature", "properties": { "NAME": "0", "LAYER": "0", "Cong_Ty": "0", "Khu_Lien_Hop": "", "Xi_Nghiep": "", "Nong_Truong": "", "Khu_Vuc": "", "Ten_Lo": "", "Loai_Cay": "", "Dien_Tich": 0.0, "So_Cay": 0, "Thang_Trong": 0, "Nam_Trong": 0, "Mat_Do": 0, "Loai_Giong": "0", "Ghi_Chu": "", "KML_STYLE": "0", "KML_FOLDER": "0", "tessellate": 0, "ID": 0, "CenterX": 0, "CenterY": 0, "LoaiDat": "0", "DienTich": 0 }, "geometry": { "type": "Point", "coordinates": [ 107.987446, 13.840116 ] } },
{ "type": "Feature", "properties": { "NAME": "0", "LAYER": "0", "Cong_Ty": "0", "Khu_Lien_Hop": "", "Xi_Nghiep": "", "Nong_Truong": "", "Khu_Vuc": "", "Ten_Lo": "", "Loai_Cay": "", "Dien_Tich": 0.0, "So_Cay": 0, "Thang_Trong": 0, "Nam_Trong": 0, "Mat_Do": 0, "Loai_Giong": "0", "Ghi_Chu": "", "KML_STYLE": "0", "KML_FOLDER": "0", "tessellate": 0, "ID": 0, "CenterX": 0, "CenterY": 0, "LoaiDat": "0", "DienTich": 0 }, "geometry": { "type": "Point", "coordinates": [ 107.977283, 13.845064 ] } },
{ "type": "Feature", "properties": { "NAME": "0", "LAYER": "0", "Cong_Ty": "0", "Khu_Lien_Hop": "", "Xi_Nghiep": "", "Nong_Truong": "", "Khu_Vuc": "", "Ten_Lo": "", "Loai_Cay": "", "Dien_Tich": 0.0, "So_Cay": 0, "Thang_Trong": 0, "Nam_Trong": 0, "Mat_Do": 0, "Loai_Giong": "0", "Ghi_Chu": "", "KML_STYLE": "0", "KML_FOLDER": "0", "tessellate": 0, "ID": 0, "CenterX": 0, "CenterY": 0, "LoaiDat": "0", "DienTich": 0 }, "geometry": { "type": "Point", "coordinates": [ 107.978139, 13.841721 ] } },
{ "type": "Feature", "properties": { "NAME": "0", "LAYER": "0", "Cong_Ty": "0", "Khu_Lien_Hop": "", "Xi_Nghiep": "", "Nong_Truong": "", "Khu_Vuc": "", "Ten_Lo": "", "Loai_Cay": "", "Dien_Tich": 0.0, "So_Cay": 0, "Thang_Trong": 0, "Nam_Trong": 0, "Mat_Do": 0, "Loai_Giong": "0", "Ghi_Chu": "", "KML_STYLE": "0", "KML_FOLDER": "0", "tessellate": 0, "ID": 0, "CenterX": 0, "CenterY": 0, "LoaiDat": "0", "DienTich": 0 }, "geometry": { "type": "Point", "coordinates": [ 107.975951, 13.842175 ] } },
{ "type": "Feature", "properties": { "NAME": "0", "LAYER": "0", "Cong_Ty": "0", "Khu_Lien_Hop": "", "Xi_Nghiep": "", "Nong_Truong": "", "Khu_Vuc": "", "Ten_Lo": "", "Loai_Cay": "", "Dien_Tich": 0.0, "So_Cay": 0, "Thang_Trong": 0, "Nam_Trong": 0, "Mat_Do": 0, "Loai_Giong": "0", "Ghi_Chu": "", "KML_STYLE": "0", "KML_FOLDER": "0", "tessellate": 0, "ID": 0, "CenterX": 0, "CenterY": 0, "LoaiDat": "0", "DienTich": 0 }, "geometry": { "type": "Point", "coordinates": [ 107.979821, 13.838823 ] } },
{ "type": "Feature", "properties": { "NAME": "0", "LAYER": "0", "Cong_Ty": "0", "Khu_Lien_Hop": "", "Xi_Nghiep": "", "Nong_Truong": "", "Khu_Vuc": "", "Ten_Lo": "", "Loai_Cay": "", "Dien_Tich": 0.0, "So_Cay": 0, "Thang_Trong": 0, "Nam_Trong": 0, "Mat_Do": 0, "Loai_Giong": "0", "Ghi_Chu": "", "KML_STYLE": "0", "KML_FOLDER": "0", "tessellate": 0, "ID": 0, "CenterX": 0, "CenterY": 0, "LoaiDat": "0", "DienTich": 0 }, "geometry": { "type": "Point", "coordinates": [ 107.977993, 13.83769 ] } },
{ "type": "Feature", "properties": { "NAME": "0", "LAYER": "0", "Cong_Ty": "0", "Khu_Lien_Hop": "", "Xi_Nghiep": "", "Nong_Truong": "", "Khu_Vuc": "", "Ten_Lo": "", "Loai_Cay": "", "Dien_Tich": 0.0, "So_Cay": 0, "Thang_Trong": 0, "Nam_Trong": 0, "Mat_Do": 0, "Loai_Giong": "0", "Ghi_Chu": "", "KML_STYLE": "0", "KML_FOLDER": "0", "tessellate": 0, "ID": 0, "CenterX": 0, "CenterY": 0, "LoaiDat": "0", "DienTich": 0 }, "geometry": { "type": "Point", "coordinates": [ 107.982214, 13.838653 ] } },
{ "type": "Feature", "properties": { "NAME": "0", "LAYER": "0", "Cong_Ty": "0", "Khu_Lien_Hop": "", "Xi_Nghiep": "", "Nong_Truong": "", "Khu_Vuc": "", "Ten_Lo": "", "Loai_Cay": "", "Dien_Tich": 0.0, "So_Cay": 0, "Thang_Trong": 0, "Nam_Trong": 0, "Mat_Do": 0, "Loai_Giong": "0", "Ghi_Chu": "", "KML_STYLE": "0", "KML_FOLDER": "0", "tessellate": 0, "ID": 0, "CenterX": 0, "CenterY": 0, "LoaiDat": "0", "DienTich": 0 }, "geometry": { "type": "Point", "coordinates": [ 107.980415, 13.837398 ] } },
{ "type": "Feature", "properties": { "NAME": "0", "LAYER": "0", "Cong_Ty": "0", "Khu_Lien_Hop": "", "Xi_Nghiep": "", "Nong_Truong": "", "Khu_Vuc": "", "Ten_Lo": "", "Loai_Cay": "", "Dien_Tich": 0.0, "So_Cay": 0, "Thang_Trong": 0, "Nam_Trong": 0, "Mat_Do": 0, "Loai_Giong": "0", "Ghi_Chu": "", "KML_STYLE": "0", "KML_FOLDER": "0", "tessellate": 0, "ID": 0, "CenterX": 0, "CenterY": 0, "LoaiDat": "0", "DienTich": 0 }, "geometry": { "type": "Point", "coordinates": [ 107.978995, 13.840682 ] } },
{ "type": "Feature", "properties": { "NAME": "0", "LAYER": "0", "Cong_Ty": "0", "Khu_Lien_Hop": "", "Xi_Nghiep": "", "Nong_Truong": "", "Khu_Vuc": "", "Ten_Lo": "", "Loai_Cay": "", "Dien_Tich": 0.0, "So_Cay": 0, "Thang_Trong": 0, "Nam_Trong": 0, "Mat_Do": 0, "Loai_Giong": "0", "Ghi_Chu": "", "KML_STYLE": "0", "KML_FOLDER": "0", "tessellate": 0, "ID": 0, "CenterX": 0, "CenterY": 0, "LoaiDat": "0", "DienTich": 0 }, "geometry": { "type": "Point", "coordinates": [ 107.978178, 13.843477 ] } },
{ "type": "Feature", "properties": { "NAME": "0", "LAYER": "0", "Cong_Ty": "0", "Khu_Lien_Hop": "", "Xi_Nghiep": "", "Nong_Truong": "", "Khu_Vuc": "", "Ten_Lo": "", "Loai_Cay": "", "Dien_Tich": 0.0, "So_Cay": 0, "Thang_Trong": 0, "Nam_Trong": 0, "Mat_Do": 0, "Loai_Giong": "0", "Ghi_Chu": "", "KML_STYLE": "0", "KML_FOLDER": "0", "tessellate": 0, "ID": 0, "CenterX": 0, "CenterY": 0, "LoaiDat": "0", "DienTich": 0 }, "geometry": { "type": "Point", "coordinates": [ 107.984655, 13.83973 ] } },
{ "type": "Feature", "properties": { "NAME": "", "LAYER": "", "Cong_Ty": "", "Khu_Lien_Hop": "", "Xi_Nghiep": "", "Nong_Truong": "", "Khu_Vuc": "", "Ten_Lo": "", "Loai_Cay": "", "Dien_Tich": 0.0, "So_Cay": 0, "Thang_Trong": 0, "Nam_Trong": 0, "Mat_Do": 0, "Loai_Giong": "", "Ghi_Chu": "", "KML_STYLE": "", "KML_FOLDER": "", "tessellate": 0, "ID": 0, "CenterX": 0, "CenterY": 0, "LoaiDat": "", "DienTich": 0 }, "geometry": { "type": "Point", "coordinates": [ 107.936657, 13.906281 ] } },
{ "type": "Feature", "properties": { "NAME": "", "LAYER": "", "Cong_Ty": "", "Khu_Lien_Hop": "", "Xi_Nghiep": "", "Nong_Truong": "", "Khu_Vuc": "", "Ten_Lo": "", "Loai_Cay": "", "Dien_Tich": 0.0, "So_Cay": 0, "Thang_Trong": 0, "Nam_Trong": 0, "Mat_Do": 0, "Loai_Giong": "", "Ghi_Chu": "", "KML_STYLE": "", "KML_FOLDER": "", "tessellate": 0, "ID": 0, "CenterX": 0, "CenterY": 0, "LoaiDat": "", "DienTich": 0 }, "geometry": { "type": "Point", "coordinates": [ 107.937602, 13.907498 ] } },
{ "type": "Feature", "properties": { "NAME": "", "LAYER": "", "Cong_Ty": "", "Khu_Lien_Hop": "", "Xi_Nghiep": "", "Nong_Truong": "", "Khu_Vuc": "", "Ten_Lo": "", "Loai_Cay": "", "Dien_Tich": 0.0, "So_Cay": 0, "Thang_Trong": 0, "Nam_Trong": 0, "Mat_Do": 0, "Loai_Giong": "", "Ghi_Chu": "", "KML_STYLE": "", "KML_FOLDER": "", "tessellate": 0, "ID": 0, "CenterX": 0, "CenterY": 0, "LoaiDat": "", "DienTich": 0 }, "geometry": { "type": "Point", "coordinates": [ 107.935578, 13.905582 ] } },
{ "type": "Feature", "properties": { "NAME": "", "LAYER": "", "Cong_Ty": "", "Khu_Lien_Hop": "", "Xi_Nghiep": "", "Nong_Truong": "", "Khu_Vuc": "", "Ten_Lo": "", "Loai_Cay": "", "Dien_Tich": 0.0, "So_Cay": 0, "Thang_Trong": 0, "Nam_Trong": 0, "Mat_Do": 0, "Loai_Giong": "", "Ghi_Chu": "", "KML_STYLE": "", "KML_FOLDER": "", "tessellate": 0, "ID": 0, "CenterX": 0, "CenterY": 0, "LoaiDat": "", "DienTich": 0 }, "geometry": { "type": "Point", "coordinates": [ 107.938312, 13.905214 ] } },
{ "type": "Feature", "properties": { "NAME": "", "LAYER": "", "Cong_Ty": "", "Khu_Lien_Hop": "", "Xi_Nghiep": "", "Nong_Truong": "", "Khu_Vuc": "", "Ten_Lo": "", "Loai_Cay": "", "Dien_Tich": 0.0, "So_Cay": 0, "Thang_Trong": 0, "Nam_Trong": 0, "Mat_Do": 0, "Loai_Giong": "", "Ghi_Chu": "", "KML_STYLE": "", "KML_FOLDER": "", "tessellate": 0, "ID": 0, "CenterX": 0, "CenterY": 0, "LoaiDat": "", "DienTich": 0 }, "geometry": { "type": "Point", "coordinates": [ 107.941735, 13.905516 ] } },
{ "type": "Feature", "properties": { "NAME": "", "LAYER": "", "Cong_Ty": "", "Khu_Lien_Hop": "", "Xi_Nghiep": "", "Nong_Truong": "", "Khu_Vuc": "", "Ten_Lo": "", "Loai_Cay": "", "Dien_Tich": 0.0, "So_Cay": 0, "Thang_Trong": 0, "Nam_Trong": 0, "Mat_Do": 0, "Loai_Giong": "", "Ghi_Chu": "", "KML_STYLE": "", "KML_FOLDER": "", "tessellate": 0, "ID": 0, "CenterX": 0, "CenterY": 0, "LoaiDat": "", "DienTich": 0 }, "geometry": { "type": "Point", "coordinates": [ 107.942134, 13.906809 ] } },
{ "type": "Feature", "properties": { "NAME": "", "LAYER": "", "Cong_Ty": "", "Khu_Lien_Hop": "", "Xi_Nghiep": "", "Nong_Truong": "", "Khu_Vuc": "", "Ten_Lo": "", "Loai_Cay": "", "Dien_Tich": 0.0, "So_Cay": 0, "Thang_Trong": 0, "Nam_Trong": 0, "Mat_Do": 0, "Loai_Giong": "", "Ghi_Chu": "", "KML_STYLE": "", "KML_FOLDER": "", "tessellate": 0, "ID": 0, "CenterX": 0, "CenterY": 0, "LoaiDat": "", "DienTich": 0 }, "geometry": { "type": "Point", "coordinates": [ 107.942484, 13.907923 ] } },
{ "type": "Feature", "properties": { "NAME": "", "LAYER": "", "Cong_Ty": "", "Khu_Lien_Hop": "", "Xi_Nghiep": "", "Nong_Truong": "", "Khu_Vuc": "", "Ten_Lo": "", "Loai_Cay": "", "Dien_Tich": 0.0, "So_Cay": 0, "Thang_Trong": 0, "Nam_Trong": 0, "Mat_Do": 0, "Loai_Giong": "", "Ghi_Chu": "", "KML_STYLE": "", "KML_FOLDER": "", "tessellate": 0, "ID": 0, "CenterX": 0, "CenterY": 0, "LoaiDat": "", "DienTich": 0 }, "geometry": { "type": "Point", "coordinates": [ 107.942805, 13.910047 ] } },
{ "type": "Feature", "properties": { "NAME": "", "LAYER": "", "Cong_Ty": "", "Khu_Lien_Hop": "", "Xi_Nghiep": "", "Nong_Truong": "", "Khu_Vuc": "", "Ten_Lo": "", "Loai_Cay": "", "Dien_Tich": 0.0, "So_Cay": 0, "Thang_Trong": 0, "Nam_Trong": 0, "Mat_Do": 0, "Loai_Giong": "", "Ghi_Chu": "", "KML_STYLE": "", "KML_FOLDER": "", "tessellate": 0, "ID": 0, "CenterX": 0, "CenterY": 0, "LoaiDat": "", "DienTich": 0 }, "geometry": { "type": "Point", "coordinates": [ 107.938525, 13.910698 ] } },
{ "type": "Feature", "properties": { "NAME": "", "LAYER": "", "Cong_Ty": "", "Khu_Lien_Hop": "", "Xi_Nghiep": "", "Nong_Truong": "", "Khu_Vuc": "", "Ten_Lo": "", "Loai_Cay": "", "Dien_Tich": 0.0, "So_Cay": 0, "Thang_Trong": 0, "Nam_Trong": 0, "Mat_Do": 0, "Loai_Giong": "", "Ghi_Chu": "", "KML_STYLE": "", "KML_FOLDER": "", "tessellate": 0, "ID": 0, "CenterX": 0, "CenterY": 0, "LoaiDat": "", "DienTich": 0 }, "geometry": { "type": "Point", "coordinates": [ 107.929539, 13.90712 ] } },
{ "type": "Feature", "properties": { "NAME": "", "LAYER": "", "Cong_Ty": "", "Khu_Lien_Hop": "", "Xi_Nghiep": "", "Nong_Truong": "", "Khu_Vuc": "", "Ten_Lo": "", "Loai_Cay": "", "Dien_Tich": 0.0, "So_Cay": 0, "Thang_Trong": 0, "Nam_Trong": 0, "Mat_Do": 0, "Loai_Giong": "", "Ghi_Chu": "", "KML_STYLE": "", "KML_FOLDER": "", "tessellate": 0, "ID": 0, "CenterX": 0, "CenterY": 0, "LoaiDat": "", "DienTich": 0 }, "geometry": { "type": "Point", "coordinates": [ 107.930424, 13.905817 ] } },
{ "type": "Feature", "properties": { "NAME": "", "LAYER": "", "Cong_Ty": "", "Khu_Lien_Hop": "", "Xi_Nghiep": "", "Nong_Truong": "", "Khu_Vuc": "", "Ten_Lo": "", "Loai_Cay": "", "Dien_Tich": 0.0, "So_Cay": 0, "Thang_Trong": 0, "Nam_Trong": 0, "Mat_Do": 0, "Loai_Giong": "", "Ghi_Chu": "", "KML_STYLE": "", "KML_FOLDER": "", "tessellate": 0, "ID": 0, "CenterX": 0, "CenterY": 0, "LoaiDat": "", "DienTich": 0 }, "geometry": { "type": "Point", "coordinates": [ 107.927458, 13.905931 ] } },
{ "type": "Feature", "properties": { "NAME": "", "LAYER": "", "Cong_Ty": "", "Khu_Lien_Hop": "", "Xi_Nghiep": "", "Nong_Truong": "", "Khu_Vuc": "", "Ten_Lo": "", "Loai_Cay": "", "Dien_Tich": 0.0, "So_Cay": 0, "Thang_Trong": 0, "Nam_Trong": 0, "Mat_Do": 0, "Loai_Giong": "", "Ghi_Chu": "", "KML_STYLE": "", "KML_FOLDER": "", "tessellate": 0, "ID": 0, "CenterX": 0, "CenterY": 0, "LoaiDat": "", "DienTich": 0 }, "geometry": { "type": "Point", "coordinates": [ 107.928002, 13.903826 ] } },
{ "type": "Feature", "properties": { "NAME": "", "LAYER": "", "Cong_Ty": "", "Khu_Lien_Hop": "", "Xi_Nghiep": "", "Nong_Truong": "", "Khu_Vuc": "", "Ten_Lo": "", "Loai_Cay": "", "Dien_Tich": 0.0, "So_Cay": 0, "Thang_Trong": 0, "Nam_Trong": 0, "Mat_Do": 0, "Loai_Giong": "", "Ghi_Chu": "", "KML_STYLE": "", "KML_FOLDER": "", "tessellate": 0, "ID": 0, "CenterX": 0, "CenterY": 0, "LoaiDat": "", "DienTich": 0 }, "geometry": { "type": "Point", "coordinates": [ 107.926076, 13.904439 ] } },
{ "type": "Feature", "properties": { "NAME": "", "LAYER": "", "Cong_Ty": "", "Khu_Lien_Hop": "", "Xi_Nghiep": "", "Nong_Truong": "", "Khu_Vuc": "", "Ten_Lo": "", "Loai_Cay": "", "Dien_Tich": 0.0, "So_Cay": 0, "Thang_Trong": 0, "Nam_Trong": 0, "Mat_Do": 0, "Loai_Giong": "", "Ghi_Chu": "", "KML_STYLE": "", "KML_FOLDER": "", "tessellate": 0, "ID": 0, "CenterX": 0, "CenterY": 0, "LoaiDat": "", "DienTich": 0 }, "geometry": { "type": "Point", "coordinates": [ 107.925133, 13.902608 ] } },
{ "type": "Feature", "properties": { "NAME": "", "LAYER": "", "Cong_Ty": "", "Khu_Lien_Hop": "", "Xi_Nghiep": "", "Nong_Truong": "", "Khu_Vuc": "", "Ten_Lo": "", "Loai_Cay": "", "Dien_Tich": 0.0, "So_Cay": 0, "Thang_Trong": 0, "Nam_Trong": 0, "Mat_Do": 0, "Loai_Giong": "", "Ghi_Chu": "", "KML_STYLE": "", "KML_FOLDER": "", "tessellate": 0, "ID": 0, "CenterX": 0, "CenterY": 0, "LoaiDat": "", "DienTich": 0 }, "geometry": { "type": "Point", "coordinates": [ 107.92419, 13.904864 ] } },
{ "type": "Feature", "properties": { "NAME": "", "LAYER": "", "Cong_Ty": "", "Khu_Lien_Hop": "", "Xi_Nghiep": "", "Nong_Truong": "", "Khu_Vuc": "", "Ten_Lo": "", "Loai_Cay": "", "Dien_Tich": 0.0, "So_Cay": 0, "Thang_Trong": 0, "Nam_Trong": 0, "Mat_Do": 0, "Loai_Giong": "", "Ghi_Chu": "", "KML_STYLE": "", "KML_FOLDER": "", "tessellate": 0, "ID": 0, "CenterX": 0, "CenterY": 0, "LoaiDat": "", "DienTich": 0 }, "geometry": { "type": "Point", "coordinates": [ 107.923625, 13.902967 ] } },
{ "type": "Feature", "properties": { "NAME": "", "LAYER": "", "Cong_Ty": "", "Khu_Lien_Hop": "", "Xi_Nghiep": "", "Nong_Truong": "", "Khu_Vuc": "", "Ten_Lo": "", "Loai_Cay": "", "Dien_Tich": 0.0, "So_Cay": 0, "Thang_Trong": 0, "Nam_Trong": 0, "Mat_Do": 0, "Loai_Giong": "", "Ghi_Chu": "", "KML_STYLE": "", "KML_FOLDER": "", "tessellate": 0, "ID": 0, "CenterX": 0, "CenterY": 0, "LoaiDat": "", "DienTich": 0 }, "geometry": { "type": "Point", "coordinates": [ 107.919969, 13.903354 ] } },
{ "type": "Feature", "properties": { "NAME": "", "LAYER": "", "Cong_Ty": "", "Khu_Lien_Hop": "", "Xi_Nghiep": "", "Nong_Truong": "", "Khu_Vuc": "", "Ten_Lo": "", "Loai_Cay": "", "Dien_Tich": 0.0, "So_Cay": 0, "Thang_Trong": 0, "Nam_Trong": 0, "Mat_Do": 0, "Loai_Giong": "", "Ghi_Chu": "", "KML_STYLE": "", "KML_FOLDER": "", "tessellate": 0, "ID": 0, "CenterX": 0, "CenterY": 0, "LoaiDat": "", "DienTich": 0 }, "geometry": { "type": "Point", "coordinates": [ 107.921262, 13.9024 ] } },
{ "type": "Feature", "properties": { "NAME": "", "LAYER": "", "Cong_Ty": "", "Khu_Lien_Hop": "", "Xi_Nghiep": "", "Nong_Truong": "", "Khu_Vuc": "", "Ten_Lo": "", "Loai_Cay": "", "Dien_Tich": 0.0, "So_Cay": 0, "Thang_Trong": 0, "Nam_Trong": 0, "Mat_Do": 0, "Loai_Giong": "", "Ghi_Chu": "", "KML_STYLE": "", "KML_FOLDER": "", "tessellate": 0, "ID": 0, "CenterX": 0, "CenterY": 0, "LoaiDat": "", "DienTich": 0 }, "geometry": { "type": "Point", "coordinates": [ 107.923828, 13.91926 ] } },
{ "type": "Feature", "properties": { "NAME": "", "LAYER": "", "Cong_Ty": "", "Khu_Lien_Hop": "", "Xi_Nghiep": "", "Nong_Truong": "", "Khu_Vuc": "", "Ten_Lo": "", "Loai_Cay": "", "Dien_Tich": 0.0, "So_Cay": 0, "Thang_Trong": 0, "Nam_Trong": 0, "Mat_Do": 0, "Loai_Giong": "", "Ghi_Chu": "", "KML_STYLE": "", "KML_FOLDER": "", "tessellate": 0, "ID": 0, "CenterX": 0, "CenterY": 0, "LoaiDat": "", "DienTich": 0 }, "geometry": { "type": "Point", "coordinates": [ 107.924286, 13.921471 ] } },
{ "type": "Feature", "properties": { "NAME": "", "LAYER": "", "Cong_Ty": "", "Khu_Lien_Hop": "", "Xi_Nghiep": "", "Nong_Truong": "", "Khu_Vuc": "", "Ten_Lo": "", "Loai_Cay": "", "Dien_Tich": 0.0, "So_Cay": 0, "Thang_Trong": 0, "Nam_Trong": 0, "Mat_Do": 0, "Loai_Giong": "", "Ghi_Chu": "", "KML_STYLE": "", "KML_FOLDER": "", "tessellate": 0, "ID": 0, "CenterX": 0, "CenterY": 0, "LoaiDat": "", "DienTich": 0 }, "geometry": { "type": "Point", "coordinates": [ 107.922127, 13.920442 ] } },
{ "type": "Feature", "properties": { "NAME": "", "LAYER": "", "Cong_Ty": "", "Khu_Lien_Hop": "", "Xi_Nghiep": "", "Nong_Truong": "", "Khu_Vuc": "", "Ten_Lo": "", "Loai_Cay": "", "Dien_Tich": 0.0, "So_Cay": 0, "Thang_Trong": 0, "Nam_Trong": 0, "Mat_Do": 0, "Loai_Giong": "", "Ghi_Chu": "", "KML_STYLE": "", "KML_FOLDER": "", "tessellate": 0, "ID": 0, "CenterX": 0, "CenterY": 0, "LoaiDat": "", "DienTich": 0 }, "geometry": { "type": "Point", "coordinates": [ 107.922117, 13.923076 ] } },
{ "type": "Feature", "properties": { "NAME": "", "LAYER": "", "Cong_Ty": "", "Khu_Lien_Hop": "", "Xi_Nghiep": "", "Nong_Truong": "", "Khu_Vuc": "", "Ten_Lo": "", "Loai_Cay": "", "Dien_Tich": 0.0, "So_Cay": 0, "Thang_Trong": 0, "Nam_Trong": 0, "Mat_Do": 0, "Loai_Giong": "", "Ghi_Chu": "", "KML_STYLE": "", "KML_FOLDER": "", "tessellate": 0, "ID": 0, "CenterX": 0, "CenterY": 0, "LoaiDat": "", "DienTich": 0 }, "geometry": { "type": "Point", "coordinates": [ 107.924228, 13.92335 ] } },
{ "type": "Feature", "properties": { "NAME": "", "LAYER": "", "Cong_Ty": "", "Khu_Lien_Hop": "", "Xi_Nghiep": "", "Nong_Truong": "", "Khu_Vuc": "", "Ten_Lo": "", "Loai_Cay": "", "Dien_Tich": 0.0, "So_Cay": 0, "Thang_Trong": 0, "Nam_Trong": 0, "Mat_Do": 0, "Loai_Giong": "", "Ghi_Chu": "", "KML_STYLE": "", "KML_FOLDER": "", "tessellate": 0, "ID": 0, "CenterX": 0, "CenterY": 0, "LoaiDat": "", "DienTich": 0 }, "geometry": { "type": "Point", "coordinates": [ 107.921796, 13.927862 ] } },
{ "type": "Feature", "properties": { "NAME": "", "LAYER": "", "Cong_Ty": "", "Khu_Lien_Hop": "", "Xi_Nghiep": "", "Nong_Truong": "", "Khu_Vuc": "", "Ten_Lo": "", "Loai_Cay": "", "Dien_Tich": 0.0, "So_Cay": 0, "Thang_Trong": 0, "Nam_Trong": 0, "Mat_Do": 0, "Loai_Giong": "", "Ghi_Chu": "", "KML_STYLE": "", "KML_FOLDER": "", "tessellate": 0, "ID": 0, "CenterX": 0, "CenterY": 0, "LoaiDat": "", "DienTich": 0 }, "geometry": { "type": "Point", "coordinates": [ 107.923071, 13.927928 ] } },
{ "type": "Feature", "properties": { "NAME": "", "LAYER": "", "Cong_Ty": "", "Khu_Lien_Hop": "", "Xi_Nghiep": "", "Nong_Truong": "", "Khu_Vuc": "", "Ten_Lo": "", "Loai_Cay": "", "Dien_Tich": 0.0, "So_Cay": 0, "Thang_Trong": 0, "Nam_Trong": 0, "Mat_Do": 0, "Loai_Giong": "", "Ghi_Chu": "", "KML_STYLE": "", "KML_FOLDER": "", "tessellate": 0, "ID": 0, "CenterX": 0, "CenterY": 0, "LoaiDat": "", "DienTich": 0 }, "geometry": { "type": "Point", "coordinates": [ 107.921981, 13.925237 ] } },
{ "type": "Feature", "properties": { "NAME": "", "LAYER": "", "Cong_Ty": "", "Khu_Lien_Hop": "", "Xi_Nghiep": "", "Nong_Truong": "", "Khu_Vuc": "", "Ten_Lo": "", "Loai_Cay": "", "Dien_Tich": 0.0, "So_Cay": 0, "Thang_Trong": 0, "Nam_Trong": 0, "Mat_Do": 0, "Loai_Giong": "", "Ghi_Chu": "", "KML_STYLE": "", "KML_FOLDER": "", "tessellate": 0, "ID": 0, "CenterX": 0, "CenterY": 0, "LoaiDat": "", "DienTich": 0 }, "geometry": { "type": "Point", "coordinates": [ 107.923858, 13.925511 ] } },
{ "type": "Feature", "properties": { "NAME": "0", "LAYER": "0", "Cong_Ty": "0", "Khu_Lien_Hop": "", "Xi_Nghiep": "", "Nong_Truong": "", "Khu_Vuc": "", "Ten_Lo": "", "Loai_Cay": "", "Dien_Tich": 0.0, "So_Cay": 0, "Thang_Trong": 0, "Nam_Trong": 0, "Mat_Do": 0, "Loai_Giong": "0", "Ghi_Chu": "", "KML_STYLE": "0", "KML_FOLDER": "0", "tessellate": 0, "ID": 0, "CenterX": 0, "CenterY": 0, "LoaiDat": "0", "DienTich": 0 }, "geometry": { "type": "Point", "coordinates": [ 107.979821, 13.83498 ] } }
]
}
